{
  "norad_id": 48603,
  "name": "STARLINK-2714",
  "history": [
    {
      "epoch": "2026-03-28T22:00:01.999584",
      "apogee_km": 483.05969706899214,
      "perigee_km": 481.4185578917759,
      "latitude_deg": 50.91741748568049,
      "longitude_deg": -151.69777824007906,
      "semi_major_axis_km": 6860.376127480384,
      "eccentricity": 0.00011961,
      "inclination_deg": 53.149,
      "raan_deg": 24.4633,
      "arg_perigee_deg": 77.901,
      "mean_anomaly_deg": 227.4887,
      "mean_motion_rev_day": 15.27850538
    },
    {
      "epoch": "2026-03-29T04:00:01.999584",
      "apogee_km": 481.10923013785214,
      "perigee_km": 479.0092504490749,
      "latitude_deg": -44.81785048926588,
      "longitude_deg": -127.69777824007906,
      "semi_major_axis_km": 6858.196240293463,
      "eccentricity": 0.0001531,
      "inclination_deg": 53.1525,
      "raan_deg": 23.3072,
      "arg_perigee_deg": 86.584,
      "mean_anomaly_deg": 155.0557,
      "mean_motion_rev_day": 15.2857904
    }
  ]
}